{"fetched_at":"2026-07-12T17:32:45.898Z","source":"https://celestrak.org/NORAD/elements/gp.php?NAME=GLOBAL&FORMAT=JSON","constellation":"blacksky-gen3","records":[{"OBJECT_NAME":"GLOBAL-31","OBJECT_ID":"2025-033B","EPOCH":"2026-07-12T01:43:30.224640","CLASSIFICATION_TYPE":"U","MEAN_MOTION":15.38274151,"ECCENTRICITY":0.00116896,"INCLINATION":58.9963,"RA_OF_ASC_NODE":215.5943,"ARG_OF_PERICENTER":55.2607,"MEAN_ANOMALY":304.9568,"EPHEMERIS_TYPE":0,"NORAD_CAT_ID":63027,"ELEMENT_SET_NO":999,"REV_AT_EPOCH":7815,"BSTAR":0.00017244799,"MEAN_MOTION_DOT":0.0000624,"MEAN_MOTION_DDOT":0},{"OBJECT_NAME":"GLOBAL-32","OBJECT_ID":"2025-118B","EPOCH":"2026-07-12T12:46:34.894848","CLASSIFICATION_TYPE":"U","MEAN_MOTION":15.39243851,"ECCENTRICITY":0.00163,"INCLINATION":58.9939,"RA_OF_ASC_NODE":29.9579,"ARG_OF_PERICENTER":59.5003,"MEAN_ANOMALY":300.768,"EPHEMERIS_TYPE":0,"NORAD_CAT_ID":64231,"ELEMENT_SET_NO":999,"REV_AT_EPOCH":6214,"BSTAR":0.00021813,"MEAN_MOTION_DOT":0.00008269,"MEAN_MOTION_DDOT":0},{"OBJECT_NAME":"GLOBAL-33","OBJECT_ID":"2025-267A","EPOCH":"2026-07-12T06:05:04.357824","CLASSIFICATION_TYPE":"U","MEAN_MOTION":15.37188329,"ECCENTRICITY":0.000794,"INCLINATION":42.0191,"RA_OF_ASC_NODE":270.401,"ARG_OF_PERICENTER":69.4154,"MEAN_ANOMALY":290.7536,"EPHEMERIS_TYPE":0,"NORAD_CAT_ID":66554,"ELEMENT_SET_NO":999,"REV_AT_EPOCH":3590,"BSTAR":0.00019668,"MEAN_MOTION_DOT":0.00007068,"MEAN_MOTION_DDOT":0},{"OBJECT_NAME":"GLOBAL-34","OBJECT_ID":"2026-043A","EPOCH":"2026-07-12T01:07:34.682016","CLASSIFICATION_TYPE":"U","MEAN_MOTION":15.33067816,"ECCENTRICITY":0.00014078,"INCLINATION":42.0219,"RA_OF_ASC_NODE":76.9878,"ARG_OF_PERICENTER":103.4964,"MEAN_ANOMALY":256.6031,"EPHEMERIS_TYPE":0,"NORAD_CAT_ID":68098,"ELEMENT_SET_NO":999,"REV_AT_EPOCH":1964,"BSTAR":0.00018783983,"MEAN_MOTION_DOT":0.00005881,"MEAN_MOTION_DDOT":0}]}
