GLOBAL-31               
1 63027U 25033B   26193.07187760  .00006240  00000+0  17245-3 0  9991
2 63027  58.9963 215.5943 0011689  55.2607 304.9568 15.38274151 78152
GLOBAL-32               
1 64231U 25118B   26193.53234832  .00008269  00000+0  21813-3 0  9996
2 64231  58.9939  29.9579 0016300  59.5003 300.7680 15.39243851 62142
GLOBAL-33               
1 66554U 25267A   26193.25352266  .00007068  00000+0  19668-3 0  9993
2 66554  42.0191 270.4010 0007940  69.4154 290.7536 15.37188329 35904
GLOBAL-34               
1 68098U 26043A   26193.04692919  .00005881  00000+0  18784-3 0  9999
2 68098  42.0219  76.9878 0001407 103.4964 256.6031 15.33067816 19648
